[{"OBJECT_NAME":"CUBEBEL 2 (EU11S)","OBJECT_ID":"2023-091K","EPOCH":"2026-03-09T21:40:29.186112","MEAN_MOTION":15.26706784,"ECCENTRICITY":0.00118653,"INCLINATION":97.517,"RA_OF_ASC_NODE":131.3579,"ARG_OF_PERICENTER":105.889,"MEAN_ANOMALY":254.3657,"EPHEMERIS_TYPE":0,"CLASSIFICATION_TYPE":"U","NORAD_CAT_ID":57175,"ELEMENT_SET_NO":999,"REV_AT_EPOCH":14914,"BSTAR":0.00056688644,"MEAN_MOTION_DOT":0.00014859,"MEAN_MOTION_DDOT":0},{"OBJECT_NAME":"STARLINK-36553","OBJECT_ID":"2026-012P","EPOCH":"2026-03-09T02:03:26.552736","MEAN_MOTION":15.27569407,"ECCENTRICITY":0.00018577,"INCLINATION":43.0032,"RA_OF_ASC_NODE":317.4469,"ARG_OF_PERICENTER":254.6779,"MEAN_ANOMALY":105.3867,"EPHEMERIS_TYPE":0,"CLASSIFICATION_TYPE":"U","NORAD_CAT_ID":67506,"ELEMENT_SET_NO":999,"REV_AT_EPOCH":767,"BSTAR":0.0013010866,"MEAN_MOTION_DOT":0.00035703,"MEAN_MOTION_DDOT":0}]
